start=new Date('2023-02-07T00:00:00.000Z').valueOf();
sats=[{"FILE":"3776034","SEMIMAJOR_AXIS":"6917.849","SITE":"AFETR","ELEMENT_SET_NO":"999","DECAY_DATE":null,"MEAN_MOTION_DOT":"0.00003413","PERIOD":"95.437","COUNTRY_CODE":"US","PERIAPSIS":"538.862","MEAN_ANOMALY":"272.4547","BSTAR":"0.00023238000000","INCLINATION":"53.2163","MEAN_ELEMENT_THEORY":"SGP4","RA_OF_ASC_NODE":"237.5738","APOAPSIS":"540.566","REF_FRAME":"TEME","EPHEMERIS_TYPE":"0","CLASSIFICATION_TYPE":"U","EPOCH":"2023-02-06T21:03:12.063744","RCS_SIZE":"LARGE","OBJECT_TYPE":"PAYLOAD","LAUNCH_DATE":"2021-11-13","MEAN_MOTION_DDOT":"0.0000000000000","CENTER_NAME":"EARTH","TIME_SYSTEM":"UTC","NORAD_CAT_ID":"49447","MEAN_MOTION":"15.08850294","GP_ID":"224653248","ECCENTRICITY":"0.00012310","TLE_LINE1":"1 49447U 21104AR  23037.87722296  .00003413  00000-0  23238-3 0  9996","OBJECT_ID":"2021-104AR","OBJECT_NAME":"STARLINK-3115","TLE_LINE2":"2 49447  53.2163 237.5738 0001231  87.6587 272.4547 15.08850294 68662","REV_AT_EPOCH":"6866","ARG_OF_PERICENTER":"87.6587"},{"GP_ID":"224651997","ECCENTRICITY":"0.00010760","NORAD_CAT_ID":"49448","MEAN_MOTION":"15.08846477","CENTER_NAME":"EARTH","TIME_SYSTEM":"UTC","LAUNCH_DATE":"2021-11-13","MEAN_MOTION_DDOT":"0.0000000000000","OBJECT_NAME":"STARLINK-3097","OBJECT_ID":"2021-104AS","TLE_LINE1":"1 49448U 21104AS  23037.82202508  .00000674  00000-0  60396-4 0  9994","TLE_LINE2":"2 49448  53.2148 237.8276 0001076  89.4270 270.6845 15.08846477 68650","ARG_OF_PERICENTER":"89.4270","REV_AT_EPOCH":"6865","MEAN_MOTION_DOT":"0.00000674","DECAY_DATE":null,"ELEMENT_SET_NO":"999","SITE":"AFETR","SEMIMAJOR_AXIS":"6917.861","FILE":"3776034","BSTAR":"0.00006039600000","PERIAPSIS":"538.981","MEAN_ANOMALY":"270.6845","PERIOD":"95.437","COUNTRY_CODE":"US","EPHEMERIS_TYPE":"0","APOAPSIS":"540.470","REF_FRAME":"TEME","MEAN_ELEMENT_THEORY":"SGP4","RA_OF_ASC_NODE":"237.8276","INCLINATION":"53.2148","OBJECT_TYPE":"PAYLOAD","RCS_SIZE":"LARGE","CLASSIFICATION_TYPE":"U","EPOCH":"2023-02-06T19:43:42.966912"},{"RCS_SIZE":"LARGE","EPOCH":"2023-02-06T20:57:54.054720","CLASSIFICATION_TYPE":"U","OBJECT_TYPE":"PAYLOAD","MEAN_ELEMENT_THEORY":"SGP4","RA_OF_ASC_NODE":"237.5980","INCLINATION":"53.2151","EPHEMERIS_TYPE":"0","REF_FRAME":"TEME","APOAPSIS":"540.453","PERIOD":"95.437","COUNTRY_CODE":"US","BSTAR":"0.00008127900000","PERIAPSIS":"538.976","MEAN_ANOMALY":"279.2361","SITE":"AFETR","SEMIMAJOR_AXIS":"6917.850","ELEMENT_SET_NO":"999","FILE":"3776034","MEAN_MOTION_DOT":"0.00001006","DECAY_DATE":null,"REV_AT_EPOCH":"6866","ARG_OF_PERICENTER":"80.8752","TLE_LINE2":"2 49449  53.2151 237.5980 0001068  80.8752 279.2361 15.08850072 68660","OBJECT_ID":"2021-104AT","TLE_LINE1":"1 49449U 21104AT  23037.87354230  .00001006  00000-0  81279-4 0  9993","OBJECT_NAME":"STARLINK-3137","CENTER_NAME":"EARTH","TIME_SYSTEM":"UTC","MEAN_MOTION_DDOT":"0.0000000000000","LAUNCH_DATE":"2021-11-13","GP_ID":"224652246","ECCENTRICITY":"0.00010680","NORAD_CAT_ID":"49449","MEAN_MOTION":"15.08850072"},{"PERIOD":"95.437","COUNTRY_CODE":"US","PERIAPSIS":"538.872","MEAN_ANOMALY":"277.8817","BSTAR":"0.00018114000000","FILE":"3776034","ELEMENT_SET_NO":"999","SITE":"AFETR","SEMIMAJOR_AXIS":"6917.845","DECAY_DATE":null,"MEAN_MOTION_DOT":"0.00002597","EPOCH":"2023-02-06T21:08:29.949216","CLASSIFICATION_TYPE":"U","RCS_SIZE":"LARGE","OBJECT_TYPE":"PAYLOAD","INCLINATION":"53.2163","MEAN_ELEMENT_THEORY":"SGP4","RA_OF_ASC_NODE":"237.5617","REF_FRAME":"TEME","APOAPSIS":"540.548","EPHEMERIS_TYPE":"0","TLE_LINE1":"1 49450U 21104AU  23037.88090219  .00002597  00000-0  18114-3 0  9993","OBJECT_ID":"2021-104AU","OBJECT_NAME":"STARLINK-3127","LAUNCH_DATE":"2021-11-13","MEAN_MOTION_DDOT":"0.0000000000000","TIME_SYSTEM":"UTC","CENTER_NAME":"EARTH","NORAD_CAT_ID":"49450","MEAN_MOTION":"15.08851609","ECCENTRICITY":"0.00012110","GP_ID":"224652497","REV_AT_EPOCH":"6892","ARG_OF_PERICENTER":"82.2313","TLE_LINE2":"2 49450  53.2163 237.5617 0001211  82.2313 277.8817 15.08851609 68927"},{"TLE_LINE2":"2 49451  53.2139 237.6143 0001109  86.6299 273.4820 15.08847992 68660","ARG_OF_PERICENTER":"86.6299","REV_AT_EPOCH":"6866","NORAD_CAT_ID":"49451","MEAN_MOTION":"15.08847992","ECCENTRICITY":"0.00011090","GP_ID":"224652748","MEAN_MOTION_DDOT":"0.0000000000000","LAUNCH_DATE":"2021-11-13","TIME_SYSTEM":"UTC","CENTER_NAME":"EARTH","OBJECT_NAME":"STARLINK-3125","TLE_LINE1":"1 49451U 21104AV  23037.86986505  .00004147  00000-0  27845-3 0  9998","OBJECT_ID":"2021-104AV","REF_FRAME":"TEME","APOAPSIS":"540.488","EPHEMERIS_TYPE":"0","INCLINATION":"53.2139","MEAN_ELEMENT_THEORY":"SGP4","RA_OF_ASC_NODE":"237.6143","OBJECT_TYPE":"PAYLOAD","EPOCH":"2023-02-06T20:52:36.340320","CLASSIFICATION_TYPE":"U","RCS_SIZE":"LARGE","DECAY_DATE":null,"MEAN_MOTION_DOT":"0.00004147","FILE":"3776034","ELEMENT_SET_NO":"999","SITE":"AFETR","SEMIMAJOR_AXIS":"6917.856","PERIAPSIS":"538.954","MEAN_ANOMALY":"273.4820","BSTAR":"0.00027845000000","PERIOD":"95.437","COUNTRY_CODE":"US"},{"PERIOD":"95.438","COUNTRY_CODE":"US","PERIAPSIS":"538.938","MEAN_ANOMALY":"277.4862","BSTAR":"0.00000561070000","FILE":"3776034","SITE":"AFETR","ELEMENT_SET_NO":"999","SEMIMAJOR_AXIS":"6917.881","DECAY_DATE":null,"MEAN_MOTION_DOT":"-0.00000199","EPOCH":"2023-02-06T20:32:47.649120","CLASSIFICATION_TYPE":"U","RCS_SIZE":"LARGE","OBJECT_TYPE":"PAYLOAD","INCLINATION":"53.2141","MEAN_ELEMENT_THEORY":"SGP4","RA_OF_ASC_NODE":"237.6761","APOAPSIS":"540.554","REF_FRAME":"TEME","EPHEMERIS_TYPE":"0","TLE_LINE1":"1 49452U 21104AW  23037.85610705 -.00000199  00000-0  56107-5 0  9993","OBJECT_ID":"2021-104AW","OBJECT_NAME":"STARLINK-3150","MEAN_MOTION_DDOT":"0.0000000000000","LAUNCH_DATE":"2021-11-13","TIME_SYSTEM":"UTC","CENTER_NAME":"EARTH","NORAD_CAT_ID":"49452","MEAN_MOTION":"15.08839656","GP_ID":"224651497","ECCENTRICITY":"0.00011680","REV_AT_EPOCH":"6866","ARG_OF_PERICENTER":"82.6263","TLE_LINE2":"2 49452  53.2141 237.6761 0001168  82.6263 277.4862 15.08839656 68660"},{"TIME_SYSTEM":"UTC","CENTER_NAME":"EARTH","LAUNCH_DATE":"2021-11-13","MEAN_MOTION_DDOT":"0.0000000000000","GP_ID":"224651747","ECCENTRICITY":"0.00013030","MEAN_MOTION":"15.08845504","NORAD_CAT_ID":"49453","OBJECT_ID":"2021-104AX","TLE_LINE1":"1 49453U 21104AX  23037.86250754  .00001607  00000-0  11899-3 0  9990","OBJECT_NAME":"STARLINK-3129","TLE_LINE2":"2 49453  53.2138 237.6467 0001303  90.4262 269.6879 15.08845504 68667","REV_AT_EPOCH":"6866","ARG_OF_PERICENTER":"90.4262","SITE":"AFETR","ELEMENT_SET_NO":"999","SEMIMAJOR_AXIS":"6917.864","FILE":"3776034","MEAN_MOTION_DOT":"0.00001607","DECAY_DATE":null,"COUNTRY_CODE":"US","PERIOD":"95.437","BSTAR":"0.00011899000000","MEAN_ANOMALY":"269.6879","PERIAPSIS":"538.827","RA_OF_ASC_NODE":"237.6467","MEAN_ELEMENT_THEORY":"SGP4","INCLINATION":"53.2138","EPHEMERIS_TYPE":"0","APOAPSIS":"540.630","REF_FRAME":"TEME","RCS_SIZE":"LARGE","CLASSIFICATION_TYPE":"U","EPOCH":"2023-02-06T20:42:00.651456","OBJECT_TYPE":"PAYLOAD"},{"PERIOD":"95.438","COUNTRY_CODE":"US","PERIAPSIS":"539.152","MEAN_ANOMALY":"261.8483","BSTAR":"0.00003103700000","FILE":"3776034","SEMIMAJOR_AXIS":"6917.892","SITE":"AFETR","ELEMENT_SET_NO":"999","DECAY_DATE":null,"MEAN_MOTION_DOT":"0.00000206","CLASSIFICATION_TYPE":"U","EPOCH":"2023-02-06T20:47:18.096288","RCS_SIZE":"LARGE","OBJECT_TYPE":"PAYLOAD","INCLINATION":"53.2144","MEAN_ELEMENT_THEORY":"SGP4","RA_OF_ASC_NODE":"237.6297","REF_FRAME":"TEME","APOAPSIS":"540.361","EPHEMERIS_TYPE":"0","TLE_LINE1":"1 49454U 21104AY  23037.86618167  .00000206  00000-0  31037-4 0  9998","OBJECT_ID":"2021-104AY","OBJECT_NAME":"STARLINK-3160","LAUNCH_DATE":"2021-11-13","MEAN_MOTION_DDOT":"0.0000000000000","TIME_SYSTEM":"UTC","CENTER_NAME":"EARTH","NORAD_CAT_ID":"49454","MEAN_MOTION":"15.08836342","GP_ID":"224652998","ECCENTRICITY":"0.00008740","REV_AT_EPOCH":"6866","ARG_OF_PERICENTER":"98.2608","TLE_LINE2":"2 49454  53.2144 237.6297 0000874  98.2608 261.8483 15.08836342 68663"},{"RA_OF_ASC_NODE":"237.6978","MEAN_ELEMENT_THEORY":"SGP4","INCLINATION":"53.2119","EPHEMERIS_TYPE":"0","APOAPSIS":"540.489","REF_FRAME":"TEME","RCS_SIZE":"LARGE","EPOCH":"2023-02-06T20:26:06.442944","CLASSIFICATION_TYPE":"U","OBJECT_TYPE":"PAYLOAD","SITE":"AFETR","ELEMENT_SET_NO":"999","SEMIMAJOR_AXIS":"6917.853","FILE":"3776034","MEAN_MOTION_DOT":"0.00002583","DECAY_DATE":null,"COUNTRY_CODE":"US","PERIOD":"95.437","BSTAR":"0.00018025000000","MEAN_ANOMALY":"272.1524","PERIAPSIS":"538.947","TLE_LINE2":"2 49455  53.2119 237.6978 0001115  87.9596 272.1524 15.08848940 68660","REV_AT_EPOCH":"6866","ARG_OF_PERICENTER":"87.9596","TIME_SYSTEM":"UTC","CENTER_NAME":"EARTH","LAUNCH_DATE":"2021-11-13","MEAN_MOTION_DDOT":"0.0000000000000","GP_ID":"224653249","ECCENTRICITY":"0.00011150","MEAN_MOTION":"15.08848940","NORAD_CAT_ID":"49455","OBJECT_ID":"2021-104AZ","TLE_LINE1":"1 49455U 21104AZ  23037.85146346  .00002583  00000-0  18025-3 0  9994","OBJECT_NAME":"STARLINK-3145"},{"TLE_LINE2":"2 49456  53.2145 237.6626 0001083  83.0270 277.0845 15.08843475 68668","ARG_OF_PERICENTER":"83.0270","REV_AT_EPOCH":"6866","MEAN_MOTION":"15.08843475","NORAD_CAT_ID":"49456","ECCENTRICITY":"0.00010830","GP_ID":"224651998","MEAN_MOTION_DDOT":"0.0000000000000","LAUNCH_DATE":"2021-11-13","CENTER_NAME":"EARTH","TIME_SYSTEM":"UTC","OBJECT_NAME":"STARLINK-3124","TLE_LINE1":"1 49456U 21104BA  23037.85882666  .00000859  00000-0  72041-4 0  9990","OBJECT_ID":"2021-104BA","REF_FRAME":"TEME","APOAPSIS":"540.484","EPHEMERIS_TYPE":"0","INCLINATION":"53.2145","RA_OF_ASC_NODE":"237.6626","MEAN_ELEMENT_THEORY":"SGP4","OBJECT_TYPE":"PAYLOAD","EPOCH":"2023-02-06T20:36:42.623424","CLASSIFICATION_TYPE":"U","RCS_SIZE":"LARGE","DECAY_DATE":null,"MEAN_MOTION_DOT":"0.00000859","FILE":"3776034","SITE":"AFETR","SEMIMAJOR_AXIS":"6917.870","ELEMENT_SET_NO":"999","MEAN_ANOMALY":"277.0845","PERIAPSIS":"538.986","BSTAR":"0.00007204100000","COUNTRY_CODE":"US","PERIOD":"95.437"}];
